OBJECT_NAME,OBJECT_ID,EPOCH,MEAN_MOTION,ECCENTRICITY,INCLINATION,RA_OF_ASC_NODE,ARG_OF_PERICENTER,MEAN_ANOMALY,EPHEMERIS_TYPE,CLASSIFICATION_TYPE,NORAD_CAT_ID,ELEMENT_SET_NO,REV_AT_EPOCH,BSTAR,MEAN_MOTION_DOT,MEAN_MOTION_DDOT
GSAT-10,2012-051B,2026-07-11T12:14:38.597280,1.00271624,.0007424,0.1020,265.6162,187.1604,103.2730,0,U,38779,999,5034,0,-.159E-5,0
INTELSAT 23 (IS-23),2012-057A,2026-07-11T11:35:45.575232,1.00274259,.0000218,0.0154,27.0451,162.2022,221.0640,0,U,38867,999,5019,0,-.279E-5,0
BEIDOU-2 G6,2012-059A,2026-07-11T01:58:49.740960,1.00273656,.0009064,4.4780,73.2667,326.7150,2.6673,0,U,38953,999,5014,0,-.172E-5,0
LUCH-5B,2012-061A,2026-07-11T10:03:26.008992,1.00270884,.0003806,10.5326,49.6349,144.8636,229.4311,0,U,38977,999,4985,0,-.14E-5,0
YAMAL 300K,2012-061B,2026-07-10T19:36:31.091328,1.00272847,.0000355,0.0317,207.6302,20.5687,177.6320,0,U,38978,999,4986,0,.8E-6,0
STAR ONE C3,2012-062A,2026-07-11T11:29:31.172064,1.00269649,.0002295,0.0140,334.5456,150.8139,261.4232,0,U,38991,999,5000,0,-.243E-5,0
EUTELSAT 21B,2012-062B,2026-07-11T11:56:51.052704,1.00272312,.0003243,0.0651,5.9846,105.4070,18.8065,0,U,38992,999,5007,0,.136E-5,0
ECHOSTAR 16,2012-065A,2026-07-09T20:12:11.553696,1.00271627,.00021244,0.0180,40.2507,68.3234,60.7553,0,U,39008,999,4987,0,-.27E-5,0
ZHONGXING-12,2012-067A,2026-07-11T07:07:42.667104,1.00269372,.0002693,0.0253,103.5562,0.6341,19.4268,0,U,39017,999,4975,0,-.199E-5,0
EUTELSAT 70B,2012-069A,2026-07-11T12:14:38.597280,1.00271067,.000365,0.0612,352.5534,116.9805,74.0366,0,U,39020,999,4975,0,-.37E-6,0
YAMAL 402,2012-070A,2026-07-10T17:17:18.225312,1.00272882,.0003588,1.3223,83.8652,25.4313,133.5748,0,U,39022,999,4963,0,.93E-6,0
SKYNET 5D,2012-075A,2026-07-11T12:05:57.678720,1.00268655,.0003347,0.0691,349.1933,131.5727,42.9052,0,U,39034,999,4940,0,.106E-5,0
MEXSAT 3,2012-075B,2026-07-11T11:18:09.762048,1.00269365,.0000969,0.0181,297.6778,160.2877,246.1832,0,U,39035,999,729,0,-.2E-6,0
TDRS 11,2013-004A,2026-07-11T13:07:54.718176,1.00278126,.0004697,3.5563,31.6451,30.1337,250.4096,0,U,39070,999,4693,0,.84E-6,0
AMAZONAS 3,2013-006A,2026-07-11T11:33:23.302080,1.00273585,.0003143,0.0613,229.9532,280.1512,251.6063,0,U,39078,999,4515,0,-.276E-5,0
AZERSPACE 1,2013-006B,2026-07-11T10:21:09.308736,1.00273810,.0001943,0.0178,309.1703,204.1995,337.2717,0,U,39079,999,4905,0,.139E-5,0
SBIRS GEO-2 (USA 241),2013-011A,2026-07-11T11:36:37.992384,1.00271402,.0002068,4.5405,52.5109,49.8388,311.3944,0,U,39120,999,4878,0,-.285E-5,0
EUTELSAT 117 WEST A,2013-012A,2026-07-11T11:17:32.322336,1.00270514,.0002595,0.0144,36.7883,80.3156,224.8471,0,U,39122,999,4867,0,-.7E-7,0
ANIK G1,2013-014A,2026-07-11T11:20:17.056896,1.00271173,.0001628,0.0485,260.1084,223.0484,228.9857,0,U,39127,999,4849,0,-.68E-6,0
ZHONGXING-11,2013-020A,2026-07-11T12:18:48.899808,1.00270355,.0002161,0.0258,43.9323,40.5822,127.5186,0,U,39157,999,4814,0,-.284E-5,0
EUTELSAT 7B,2013-022A,2026-07-11T08:27:33.668064,1.00271997,.0003548,0.0643,5.1582,41.3404,16.6455,0,U,39163,999,4819,0,.54E-6,0
WGS F5 (USA 243),2013-024A,2026-07-11T11:35:53.061792,1.00270012,.0000348,0.0254,41.6193,195.4452,173.7968,0,U,39168,999,4741,0,0,0
SES-6,2013-026A,2026-07-11T11:39:15.240384,1.00272008,.0002289,0.0330,310.3333,171.0973,302.2745,0,U,39172,999,4796,0,-.255E-5,0
IRNSS-1A,2013-034A,2026-07-10T17:17:25.711872,1.00281941,.0017567,35.7704,63.5328,183.4462,356.2994,0,U,39199,999,4760,0,.47E-6,0
MUOS-2,2013-036A,2026-07-11T10:56:59.637120,1.00271765,.0052403,5.0423,45.5544,176.3985,43.6040,0,U,39206,999,4743,0,-.12E-6,0
ALPHASAT,2013-038A,2026-07-11T11:57:58.444704,1.00273484,.0002128,2.9994,1.2200,137.0603,355.4805,0,U,39215,999,4426,0,.138E-5,0
INSAT-3D,2013-038B,2026-07-11T12:27:48.038400,1.00270210,.0000503,1.9860,82.2347,82.8145,80.8501,0,U,39216,999,4732,0,-.335E-5,0
WGS F6 (USA 244),2013-041A,2026-07-11T12:04:38.583840,1.00270497,.0001113,0.0189,34.3793,189.4679,111.5413,0,U,39222,999,4630,0,.95E-6,0
ES'HAIL 1,2013-044A,2026-07-11T11:57:58.444704,1.00273690,.0002145,0.0481,12.8248,103.8305,17.7557,0,U,39233,999,4687,0,.149E-5,0
GSAT-7,2013-044B,2026-07-11T12:14:38.597280,1.00271111,.0003201,0.1410,89.8941,177.3986,279.7361,0,U,39234,999,4550,0,-.71E-6,0
AMOS-4,2013-045A,2026-07-11T12:09:19.857312,1.00272211,.0002313,0.0427,257.2372,179.3517,100.1686,0,U,39237,999,4720,0,.13E-6,0
AEHF-3 (USA 246),2013-050A,2026-07-11T11:15:38.693376,1.00270126,.0088329,5.3519,66.9628,187.6923,79.3664,0,U,39256,999,4589,0,.3E-6,0
