GSAT-10                 
1 38779U 12051B   26192.51016895 -.00000159  00000+0  00000+0 0  9992
2 38779   0.1020 265.6162 0007424 187.1604 103.2730  1.00271624 50342
INTELSAT 23 (IS-23)     
1 38867U 12057A   26192.48316638 -.00000279  00000+0  00000+0 0  9993
2 38867   0.0154  27.0451 0000218 162.2022 221.0640  1.00274259 50199
BEIDOU-2 G6             
1 38953U 12059A   26192.08252015 -.00000172  00000+0  00000+0 0  9997
2 38953   4.4780  73.2667 0009064 326.7150   2.6673  1.00273656 50141
LUCH-5B                 
1 38977U 12061A   26192.41905103 -.00000140  00000+0  00000+0 0  9991
2 38977  10.5326  49.6349 0003806 144.8636 229.4311  1.00270884 49855
YAMAL 300K              
1 38978U 12061B   26191.81702652  .00000080  00000+0  00000+0 0  9991
2 38978   0.0317 207.6302 0000355  20.5687 177.6320  1.00272847 49863
STAR ONE C3             
1 38991U 12062A   26192.47883301 -.00000243  00000+0  00000+0 0  9993
2 38991   0.0140 334.5456 0002295 150.8139 261.4232  1.00269649 50004
EUTELSAT 21B            
1 38992U 12062B   26192.49781311  .00000136  00000+0  00000+0 0  9994
2 38992   0.0651   5.9846 0003243 105.4070  18.8065  1.00272312 50074
ECHOSTAR 16             
1 39008U 12065A   26190.84180039 -.00000270  00000+0  00000+0 0  9993
2 39008   0.0180  40.2507 0002124  68.3234  60.7553  1.00271627 49874
ZHONGXING-12            
1 39017U 12067A   26192.29702161 -.00000199  00000+0  00000+0 0  9992
2 39017   0.0253 103.5562 0002693   0.6341  19.4268  1.00269372 49753
EUTELSAT 70B            
1 39020U 12069A   26192.51016895 -.00000037  00000+0  00000+0 0  9996
2 39020   0.0612 352.5534 0003650 116.9805  74.0366  1.00271067 49751
YAMAL 402               
1 39022U 12070A   26191.72034983  .00000093  00000+0  00000+0 0  9991
2 39022   1.3223  83.8652 0003588  25.4313 133.5748  1.00272882 49636
SKYNET 5D               
1 39034U 12075A   26192.50413980  .00000106  00000+0  00000+0 0  9999
2 39034   0.0691 349.1933 0003347 131.5727  42.9052  1.00268655 49404
MEXSAT 3                
1 39035U 12075B   26192.47094632 -.00000020  00000+0  00000+0 0  9991
2 39035   0.0181 297.6778 0000969 160.2877 246.1832  1.00269365  7299
TDRS 11                 
1 39070U 13004A   26192.54716109  .00000084  00000+0  00000+0 0  9990
2 39070   3.5563  31.6451 0004697  30.1337 250.4096  1.00278126 46931
AMAZONAS 3              
1 39078U 13006A   26192.48151970 -.00000276  00000+0  00000+0 0  9996
2 39078   0.0613 229.9532 0003143 280.1512 251.6063  1.00273585 45150
AZERSPACE 1             
1 39079U 13006B   26192.43135774  .00000139  00000+0  00000+0 0  9993
2 39079   0.0178 309.1703 0001943 204.1995 337.2717  1.00273810 49056
SBIRS GEO-2 (USA 241)   
1 39120U 13011A   26192.48377306 -.00000285  00000+0  00000+0 0  9993
2 39120   4.5405  52.5109 0002068  49.8388 311.3944  1.00271402 48782
EUTELSAT 117 WEST A     
1 39122U 13012A   26192.47051299 -.00000007  00000+0  00000+0 0  9997
2 39122   0.0144  36.7883 0002595  80.3156 224.8471  1.00270514 48670
ANIK G1                 
1 39127U 13014A   26192.47241964 -.00000068  00000+0  00000+0 0  9991
2 39127   0.0485 260.1084 0001628 223.0484 228.9857  1.00271173 48490
ZHONGXING-11            
1 39157U 13020A   26192.51306597 -.00000284  00000+0  00000+0 0  9990
2 39157   0.0258  43.9323 0002161  40.5822 127.5186  1.00270355 48147
EUTELSAT 7B             
1 39163U 13022A   26192.35247301  .00000054  00000+0  00000+0 0  9992
2 39163   0.0643   5.1582 0003548  41.3404  16.6455  1.00271997 48199
WGS F5 (USA 243)        
1 39168U 13024A   26192.48325303  .00000000  00000+0  00000+0 0  9993
2 39168   0.0254  41.6193 0000348 195.4452 173.7968  1.00270012 47419
SES-6                   
1 39172U 13026A   26192.48559306 -.00000255  00000+0  00000+0 0  9995
2 39172   0.0330 310.3333 0002289 171.0973 302.2745  1.00272008 47964
IRNSS-1A                
1 39199U 13034A   26191.72043648  .00000047  00000+0  00000+0 0  9994
2 39199  35.7704  63.5328 0017567 183.4462 356.2994  1.00281941 47601
MUOS-2                  
1 39206U 13036A   26192.45624580 -.00000012  00000+0  00000+0 0  9999
2 39206   5.0423  45.5544 0052403 176.3985  43.6040  1.00271765 47430
ALPHASAT                
1 39215U 13038A   26192.49859311  .00000138  00000+0  00000+0 0  9995
2 39215   2.9994   1.2200 0002128 137.0603 355.4805  1.00273484 44268
INSAT-3D                
1 39216U 13038B   26192.51930600 -.00000335  00000+0  00000+0 0  9990
2 39216   1.9860  82.2347 0000503  82.8145  80.8501  1.00270210 47320
WGS F6 (USA 244)        
1 39222U 13041A   26192.50322435  .00000095  00000+0  00000+0 0  9993
2 39222   0.0189  34.3793 0001113 189.4679 111.5413  1.00270497 46306
ES'HAIL 1               
1 39233U 13044A   26192.49859311  .00000149  00000+0  00000+0 0  9994
2 39233   0.0481  12.8248 0002145 103.8305  17.7557  1.00273690 46877
GSAT-7                  
1 39234U 13044B   26192.51016895 -.00000071  00000+0  00000+0 0  9995
2 39234   0.1410  89.8941 0003201 177.3986 279.7361  1.00271111 45508
AMOS-4                  
1 39237U 13045A   26192.50647983  .00000013  00000+0  00000+0 0  9991
2 39237   0.0427 257.2372 0002313 179.3517 100.1686  1.00272211 47200
AEHF-3 (USA 246)        
1 39256U 13050A   26192.46919784  .00000030  00000+0  00000+0 0  9993
2 39256   5.3519  66.9628 0088329 187.6923  79.3664  1.00270126 45893
